{"type": "FeatureCollection", "features": [ {"type": "Feature", "properties": {"norad_id": 35671, "name": "COSMOS 2251 DEB", "group": "cosmos-2251-debris", "lat": -45.1175193961961, "lon": 78.68017409729563, "alt_km": 715.4178636415436, "timestamp": "2025-12-04T03:47:54.938578+00:00", "meta": {"OBJECT_NAME": "COSMOS 2251 DEB", "OBJECT_ID": "1993-036APN", "EPOCH": "2025-12-03T02:19:30.985824", "MEAN_MOTION": 14.48319371, "ECCENTRICITY": 0.00415489, "INCLINATION": 74.0174, "RA_OF_ASC_NODE": 97.3946, "ARG_OF_PERICENTER": 273.0899, "MEAN_ANOMALY": 267.4122, "EPHEMERIS_TYPE": 0, "CLASSIFICATION_TYPE": "U", "NORAD_CAT_ID": 35671, "ELEMENT_SET_NO": 999, "REV_AT_EPOCH": 86623, "BSTAR": 0.0003210329, "MEAN_MOTION_DOT": 1.185e-05, "MEAN_MOTION_DDOT": 0}, "tle": {"line1": "1 35671U 93036APN 25337.09688641  .00001185  00000+0  32103-3 0  9991", "line2": "2 35671  74.0174  97.3946 0041548 273.0899 267.4122 14.48319371866235"}}, "geometry": {"type": "Point", "coordinates": [78.68017409729563, -45.1175193961961]}}, {"type": "Feature", "properties": {"norad_id": 35674, "name": "COSMOS 2251 DEB", "group": "cosmos-2251-debris", "lat": 9.71230437464093, "lon": -24.483519648520765, "alt_km": 646.773883869284, "timestamp": "2025-12-04T03:47:54.938588+00:00", "meta": {"OBJECT_NAME": "COSMOS 2251 DEB", "OBJECT_ID": "1993-036APR", "EPOCH": "2025-12-03T09:35:18.701664", "MEAN_MOTION": 14.53954759, "ECCENTRICITY": 0.0096034, "INCLINATION": 74.0596, "RA_OF_ASC_NODE": 334.1441, "ARG_OF_PERICENTER": 21.1358, "MEAN_ANOMALY": 339.3729, "EPHEMERIS_TYPE": 0, "CLASSIFICATION_TYPE": "U", "NORAD_CAT_ID": 35674, "ELEMENT_SET_NO": 999, "REV_AT_EPOCH": 85975, "BSTAR": 0.0022566, "MEAN_MOTION_DOT": 0.00010089, "MEAN_MOTION_DDOT": 0}, "tle": {"line1": "1 35674U 93036APR 25337.39952201  .00010089  00000+0  22566-2 0  9997", "line2": "2 35674  74.0596 334.1441 0096034  21.1358 339.3729 14.53954759859752"}}, "geometry": {"type": "Point", "coordinates": [-24.483519648520765, 9.71230437464093]}}, {"type": "Feature", "properties": {"norad_id": 35703, "name": "COSMOS 2251 DEB", "group": "cosmos-2251-debris", "lat": -60.28174223296292, "lon": 29.855949278832995, "alt_km": 647.8394447520523, "timestamp": "2025-12-04T03:47:54.938598+00:00", "meta": {"OBJECT_NAME": "COSMOS 2251 DEB", "OBJECT_ID": "1993-036APY", "EPOCH": "2025-12-03T11:58:43.084992", "MEAN_MOTION": 14.90122638, "ECCENTRICITY": 0.0065401, "INCLINATION": 74.0435, "RA_OF_ASC_NODE": 61.2566, "ARG_OF_PERICENTER": 134.2302, "MEAN_ANOMALY": 226.4277, "EPHEMERIS_TYPE": 0, "CLASSIFICATION_TYPE": "U", "NORAD_CAT_ID": 35703, "ELEMENT_SET_NO": 999, "REV_AT_EPOCH": 66478, "BSTAR": 0.0011723, "MEAN_MOTION_DOT": 0.00011791, "MEAN_MOTION_DDOT": 0}, "tle": {"line1": "1 35703U 93036APY 25337.49910978  .00011791  00000+0  11723-2 0  9990", "line2": "2 35703  74.0435  61.2566 0065401 134.2302 226.4277 14.90122638664787"}}, "geometry": {"type": "Point", "coordinates": [29.855949278832995, -60.28174223296292]}}, {"type": "Feature", "properties": {"norad_id": 35705, "name": "COSMOS 2251 DEB", "group": "cosmos-2251-debris", "lat": -70.56377828138743, "lon": 99.27532105334261, "alt_km": 686.3033819688153, "timestamp": "2025-12-04T03:47:54.938608+00:00", "meta": {"OBJECT_NAME": "COSMOS 2251 DEB", "OBJECT_ID": "1993-036AQA", "EPOCH": "2025-12-03T05:18:59.084352", "MEAN_MOTION": 14.71707631, "ECCENTRICITY": 0.0034156, "INCLINATION": 74.2742, "RA_OF_ASC_NODE": 154.0557, "ARG_OF_PERICENTER": 110.0272, "MEAN_ANOMALY": 250.4584, "EPHEMERIS_TYPE": 0, "CLASSIFICATION_TYPE": "U", "NORAD_CAT_ID": 35705, "ELEMENT_SET_NO": 999, "REV_AT_EPOCH": 85786, "BSTAR": 0.0035867, "MEAN_MOTION_DOT": 0.00022615, "MEAN_MOTION_DDOT": 0}, "tle": {"line1": "1 35705U 93036AQA 25337.22151718  .00022615  00000+0  35867-2 0  9994", "line2": "2 35705  74.2742 154.0557 0034156 110.0272 250.4584 14.71707631857866"}}, "geometry": {"type": "Point", "coordinates": [99.27532105334261, -70.56377828138743]}}, {"type": "Feature", "properties": {"norad_id": 35706, "name": "COSMOS 2251 DEB", "group": "cosmos-2251-debris", "lat": -37.896713040931395, "lon": -90.01269638054667, "alt_km": 1017.2168367341028, "timestamp": "2025-12-04T03:47:54.938618+00:00", "meta": {"OBJECT_NAME": "COSMOS 2251 DEB", "OBJECT_ID": "1993-036AQB", "EPOCH": "2025-12-01T13:14:17.826144", "MEAN_MOTION": 13.65877076, "ECCENTRICITY": 0.03419141, "INCLINATION": 73.888, "RA_OF_ASC_NODE": 81.2903, "ARG_OF_PERICENTER": 133.1878, "MEAN_ANOMALY": 229.8353, "EPHEMERIS_TYPE": 0, "CLASSIFICATION_TYPE": "U", "NORAD_CAT_ID": 35706, "ELEMENT_SET_NO": 999, "REV_AT_EPOCH": 61909, "BSTAR": 0.0013112957, "MEAN_MOTION_DOT": 1.587e-05, "MEAN_MOTION_DDOT": 0}, "tle": {"line1": "1 35706U 93036AQB 25335.55159521  .00001587  00000+0  13113-2 0  9994", "line2": "2 35706  73.8880  81.2903 0341914 133.1878 229.8353 13.65877076619090"}}, "geometry": {"type": "Point", "coordinates": [-90.01269638054667, -37.896713040931395]}}, {"type": "Feature", "properties": {"norad_id": 35711, "name": "COSMOS 2251 DEB", "group": "cosmos-2251-debris", "lat": 29.543536725478912, "lon": 47.59397545628206, "alt_km": 738.2419727361212, "timestamp": "2025-12-04T03:47:54.938628+00:00", "meta": {"OBJECT_NAME": "COSMOS 2251 DEB", "OBJECT_ID": "1993-036AQG", "EPOCH": "2025-12-03T10:42:59.376384", "MEAN_MOTION": 14.6375433, "ECCENTRICITY": 0.0085111, "INCLINATION": 74.0469, "RA_OF_ASC_NODE": 238.2893, "ARG_OF_PERICENTER": 341.5514, "MEAN_ANOMALY": 18.2571, "EPHEMERIS_TYPE": 0, "CLASSIFICATION_TYPE": "U", "NORAD_CAT_ID": 35711, "ELEMENT_SET_NO": 999, "REV_AT_EPOCH": 87635, "BSTAR": 0.00046917, "MEAN_MOTION_DOT": 2.545e-05, "MEAN_MOTION_DDOT": 0}, "tle": {"line1": "1 35711U 93036AQG 25337.44652056  .00002545  00000+0  46917-3 0  9995", "line2": "2 35711  74.0469 238.2893 0085111 341.5514  18.2571 14.63754330876352"}}, "geometry": {"type": "Point", "coordinates": [47.59397545628206, 29.543536725478912]}}, {"type": "Feature", "properties": {"norad_id": 35716, "name": "COSMOS 2251 DEB", "group": "cosmos-2251-debris", "lat": -17.69914299012257, "lon": -154.63154342371337, "alt_km": 677.9516788466681, "timestamp": "2025-12-04T03:47:54.938638+00:00", "meta": {"OBJECT_NAME": "COSMOS 2251 DEB", "OBJECT_ID": "1993-036AQM", "EPOCH": "2025-12-02T22:21:42.031872", "MEAN_MOTION": 14.60067337, "ECCENTRICITY": 0.00884366, "INCLINATION": 73.9934, "RA_OF_ASC_NODE": 212.9707, "ARG_OF_PERICENTER": 56.5126, "MEAN_ANOMALY": 321.7811, "EPHEMERIS_TYPE": 0, "CLASSIFICATION_TYPE": "U", "NORAD_CAT_ID": 35716, "ELEMENT_SET_NO": 999, "REV_AT_EPOCH": 87484, "BSTAR": 0.00016847867, "MEAN_MOTION_DOT": 8.23e-06, "MEAN_MOTION_DDOT": 0}, "tle": {"line1": "1 35716U 93036AQM 25336.93173648  .00000823  00000+0  16848-3 0  9995", "line2": "2 35716  73.9934 212.9707 0088436  56.5126 321.7811 14.60067337874842"}}, "geometry": {"type": "Point", "coordinates": [-154.63154342371337, -17.69914299012257]}}, {"type": "Feature", "properties": {"norad_id": 35717, "name": "COSMOS 2251 DEB", "group": "cosmos-2251-debris", "lat": 55.72645240612913, "lon": -102.18799972792914, "alt_km": 713.8820457291476, "timestamp": "2025-12-04T03:47:54.938648+00:00", "meta": {"OBJECT_NAME": "COSMOS 2251 DEB", "OBJECT_ID": "1993-036AQN", "EPOCH": "2025-12-03T10:50:01.736736", "MEAN_MOTION": 14.38379287, "ECCENTRICITY": 0.0076577, "INCLINATION": 74.1608, "RA_OF_ASC_NODE": 234.4851, "ARG_OF_PERICENTER": 96.9396, "MEAN_ANOMALY": 264.0477, "EPHEMERIS_TYPE": 0, "CLASSIFICATION_TYPE": "U", "NORAD_CAT_ID": 35717, "ELEMENT_SET_NO": 999, "REV_AT_EPOCH": 73966, "BSTAR": 0.001732, "MEAN_MOTION_DOT": 5.441e-05, "MEAN_MOTION_DDOT": 0}, "tle": {"line1": "1 35717U 93036AQN 25337.45140899  .00005441  00000+0  17320-2 0  9992", "line2": "2 35717  74.1608 234.4851 0076577  96.9396 264.0477 14.38379287739665"}}, "geometry": {"type": "Point", "coordinates": [-102.18799972792914, 55.72645240612913]}}, {"type": "Feature", "properties": {"norad_id": 35718, "name": "COSMOS 2251 DEB", "group": "cosmos-2251-debris", "lat": -43.60260328365418, "lon": 130.75219976201691, "alt_km": 676.8521415233599, "timestamp": "2025-12-04T03:47:54.938658+00:00", "meta": {"OBJECT_NAME": "COSMOS 2251 DEB", "OBJECT_ID": "1993-036AQP", "EPOCH": "2025-11-28T18:49:36.496416", "MEAN_MOTION": 14.68279459, "ECCENTRICITY": 0.00123436, "INCLINATION": 74.0315, "RA_OF_ASC_NODE": 156.9668, "ARG_OF_PERICENTER": 206.7375, "MEAN_ANOMALY": 153.316, "EPHEMERIS_TYPE": 0, "CLASSIFICATION_TYPE": "U", "NORAD_CAT_ID": 35718, "ELEMENT_SET_NO": 999, "REV_AT_EPOCH": 65635, "BSTAR": 0.0013999458, "MEAN_MOTION_DOT": 8.062e-05, "MEAN_MOTION_DDOT": 0}, "tle": {"line1": "1 35718U 93036AQP 25332.78445019  .00008062  00000+0  13999-2 0  9996", "line2": "2 35718  74.0315 156.9668 0012343 206.7375 153.3160 14.68279459656359"}}, "geometry": {"type": "Point", "coordinates": [130.75219976201691, -43.60260328365418]}}, {"type": "Feature", "properties": {"norad_id": 35721, "name": "COSMOS 2251 DEB", "group": "cosmos-2251-debris", "lat": -46.656012975860534, "lon": 175.78287018781919, "alt_km": 693.5517304871237, "timestamp": "2025-12-04T03:47:54.938668+00:00", "meta": {"OBJECT_NAME": "COSMOS 2251 DEB", "OBJECT_ID": "1993-036AQS", "EPOCH": "2025-11-29T21:54:16.243200", "MEAN_MOTION": 14.34192363, "ECCENTRICITY": 0.01464404, "INCLINATION": 73.9503, "RA_OF_ASC_NODE": 201.3539, "ARG_OF_PERICENTER": 350.3358, "MEAN_ANOMALY": 9.498, "EPHEMERIS_TYPE": 0, "CLASSIFICATION_TYPE": "U", "NORAD_CAT_ID": 35721, "ELEMENT_SET_NO": 999, "REV_AT_EPOCH": 57605, "BSTAR": 0.0014885779, "MEAN_MOTION_DOT": 4.68e-05, "MEAN_MOTION_DDOT": 0}, "tle": {"line1": "1 35721U 93036AQS 25333.91268800  .00004680  00000+0  14886-2 0  9995", "line2": "2 35721  73.9503 201.3539 0146440 350.3358   9.4980 14.34192363576055"}}, "geometry": {"type": "Point", "coordinates": [175.78287018781919, -46.656012975860534]}}]}